start=new Date('2023-05-19T00:00:00.000Z').valueOf();
sats=[{"OBJECT_NAME":"STARLINK-3073","OBJECT_TYPE":"PAYLOAD","SEMIMAJOR_AXIS":"6950.183","RCS_SIZE":"LARGE","TIME_SYSTEM":"UTC","ELEMENT_SET_NO":"999","INCLINATION":"69.9992","REV_AT_EPOCH":"9332","MEAN_ANOMALY":"91.1369","OBJECT_ID":"2021-082F","MEAN_MOTION_DOT":"0.00000486","PERIAPSIS":"569.773","DECAY_DATE":null,"CENTER_NAME":"EARTH","REF_FRAME":"TEME","BSTAR":"0.00004849700000","MEAN_MOTION_DDOT":"0.0000000000000","CLASSIFICATION_TYPE":"U","NORAD_CAT_ID":"49135","EPOCH":"2023-05-18T22:06:58.937472","FILE":"3911388","MEAN_MOTION":"14.98333126","ECCENTRICITY":"0.00032730","COUNTRY_CODE":"US","APOAPSIS":"574.323","ARG_OF_PERICENTER":"268.9415","LAUNCH_DATE":"2021-09-14","MEAN_ELEMENT_THEORY":"SGP4","GP_ID":"232112847","TLE_LINE2":"2 49135  69.9992 320.7631 0003273 268.9415  91.1369 14.98333126 93326","TLE_LINE1":"1 49135U 21082F   23138.92151548  .00000486  00000-0  48497-4 0  9991","SITE":"AFWTR","EPHEMERIS_TYPE":"0","PERIOD":"96.107","RA_OF_ASC_NODE":"320.7631"},{"REV_AT_EPOCH":"9282","MEAN_MOTION_DOT":"0.00000707","MEAN_ANOMALY":"91.4000","OBJECT_ID":"2021-082G","SEMIMAJOR_AXIS":"6950.183","OBJECT_TYPE":"PAYLOAD","OBJECT_NAME":"STARLINK-3084","RCS_SIZE":"LARGE","INCLINATION":"69.9987","ELEMENT_SET_NO":"999","TIME_SYSTEM":"UTC","ARG_OF_PERICENTER":"268.6742","APOAPSIS":"574.577","LAUNCH_DATE":"2021-09-14","TLE_LINE1":"1 49136U 21082G   23138.85081550  .00000707  00000-0  67013-4 0  9990","TLE_LINE2":"2 49136  69.9987 340.9570 0003639 268.6742  91.4000 14.98333280 92823","GP_ID":"232113097","MEAN_ELEMENT_THEORY":"SGP4","RA_OF_ASC_NODE":"340.9570","PERIOD":"96.107","EPHEMERIS_TYPE":"0","SITE":"AFWTR","DECAY_DATE":null,"PERIAPSIS":"569.519","MEAN_MOTION_DDOT":"0.0000000000000","CLASSIFICATION_TYPE":"U","BSTAR":"0.00006701300000","REF_FRAME":"TEME","CENTER_NAME":"EARTH","MEAN_MOTION":"14.98333280","FILE":"3911388","EPOCH":"2023-05-18T20:25:10.459200","NORAD_CAT_ID":"49136","ECCENTRICITY":"0.00036390","COUNTRY_CODE":"US"},{"OBJECT_ID":"2021-082H","MEAN_ANOMALY":"90.7410","MEAN_MOTION_DOT":"0.00000279","REV_AT_EPOCH":"9281","TIME_SYSTEM":"UTC","ELEMENT_SET_NO":"999","INCLINATION":"69.9997","OBJECT_NAME":"STARLINK-3055","OBJECT_TYPE":"PAYLOAD","SEMIMAJOR_AXIS":"6950.184","RCS_SIZE":"LARGE","MEAN_ELEMENT_THEORY":"SGP4","GP_ID":"232114349","TLE_LINE2":"2 49137  69.9997 340.9692 0003147 269.3389  90.7410 14.98332851 92818","TLE_LINE1":"1 49137U 21082H   23138.84664474  .00000279  00000-0  31210-4 0  9996","SITE":"AFWTR","EPHEMERIS_TYPE":"0","PERIOD":"96.107","RA_OF_ASC_NODE":"340.9692","APOAPSIS":"574.236","ARG_OF_PERICENTER":"269.3389","LAUNCH_DATE":"2021-09-14","NORAD_CAT_ID":"49137","EPOCH":"2023-05-18T20:19:10.105536","FILE":"3911388","MEAN_MOTION":"14.98332851","COUNTRY_CODE":"US","ECCENTRICITY":"0.00031470","PERIAPSIS":"569.862","DECAY_DATE":null,"CENTER_NAME":"EARTH","REF_FRAME":"TEME","BSTAR":"0.00003121000000","MEAN_MOTION_DDOT":"0.0000000000000","CLASSIFICATION_TYPE":"U"},{"APOAPSIS":"574.219","ARG_OF_PERICENTER":"269.1429","LAUNCH_DATE":"2021-09-14","TLE_LINE2":"2 49138  70.0000   1.9043 0003112 269.1429  90.9374 14.98330585 92268","TLE_LINE1":"1 49138U 21082J   23138.47969966 -.00000060  00000-0  27851-5 0  9996","MEAN_ELEMENT_THEORY":"SGP4","GP_ID":"232082869","PERIOD":"96.107","RA_OF_ASC_NODE":"1.9043","SITE":"AFWTR","EPHEMERIS_TYPE":"0","PERIAPSIS":"569.893","DECAY_DATE":null,"MEAN_MOTION_DDOT":"0.0000000000000","CLASSIFICATION_TYPE":"U","CENTER_NAME":"EARTH","BSTAR":"0.00000278510000","REF_FRAME":"TEME","FILE":"3911221","MEAN_MOTION":"14.98330585","NORAD_CAT_ID":"49138","EPOCH":"2023-05-18T11:30:46.050624","COUNTRY_CODE":"US","ECCENTRICITY":"0.00031120","REV_AT_EPOCH":"9226","MEAN_MOTION_DOT":"-0.00000060","OBJECT_ID":"2021-082J","MEAN_ANOMALY":"90.9374","OBJECT_TYPE":"PAYLOAD","SEMIMAJOR_AXIS":"6950.191","OBJECT_NAME":"STARLINK-3058","RCS_SIZE":"LARGE","ELEMENT_SET_NO":"999","INCLINATION":"70.0000","TIME_SYSTEM":"UTC"},{"BSTAR":"0.00003154700000","REF_FRAME":"TEME","CENTER_NAME":"EARTH","CLASSIFICATION_TYPE":"U","MEAN_MOTION_DDOT":"0.0000000000000","DECAY_DATE":null,"PERIAPSIS":"569.879","ECCENTRICITY":"0.00031360","COUNTRY_CODE":"US","EPOCH":"2023-05-18T18:42:42.091776","NORAD_CAT_ID":"49139","MEAN_MOTION":"14.98329762","FILE":"3911388","LAUNCH_DATE":"2021-09-14","ARG_OF_PERICENTER":"269.4341","APOAPSIS":"574.238","EPHEMERIS_TYPE":"0","SITE":"AFWTR","RA_OF_ASC_NODE":"321.1270","PERIOD":"96.107","GP_ID":"232113348","MEAN_ELEMENT_THEORY":"SGP4","TLE_LINE2":"2 49139  69.9992 321.1270 0003136 269.4341  90.6459 14.98329762 93297","TLE_LINE1":"1 49139U 21082K   23138.77965384  .00000283  00000-0  31547-4 0  9992","RCS_SIZE":"LARGE","OBJECT_NAME":"STARLINK-3057","SEMIMAJOR_AXIS":"6950.194","OBJECT_TYPE":"PAYLOAD","TIME_SYSTEM":"UTC","INCLINATION":"69.9992","ELEMENT_SET_NO":"999","REV_AT_EPOCH":"9329","MEAN_ANOMALY":"90.6459","OBJECT_ID":"2021-082K","MEAN_MOTION_DOT":"0.00000283"},{"APOAPSIS":"574.211","ARG_OF_PERICENTER":"270.0252","LAUNCH_DATE":"2021-09-14","TLE_LINE1":"1 49140U 21082L   23138.77130913  .00000319  00000-0  34542-4 0  9994","TLE_LINE2":"2 49140  69.9991 321.1570 0003102 270.0252  90.0551 14.98330838 93296","MEAN_ELEMENT_THEORY":"SGP4","GP_ID":"232113598","PERIOD":"96.107","RA_OF_ASC_NODE":"321.1570","SITE":"AFWTR","EPHEMERIS_TYPE":"0","PERIAPSIS":"569.899","DECAY_DATE":null,"MEAN_MOTION_DDOT":"0.0000000000000","CLASSIFICATION_TYPE":"U","CENTER_NAME":"EARTH","REF_FRAME":"TEME","BSTAR":"0.00003454200000","FILE":"3911388","MEAN_MOTION":"14.98330838","NORAD_CAT_ID":"49140","EPOCH":"2023-05-18T18:30:41.108832","ECCENTRICITY":"0.00031020","COUNTRY_CODE":"US","REV_AT_EPOCH":"9329","MEAN_MOTION_DOT":"0.00000319","MEAN_ANOMALY":"90.0551","OBJECT_ID":"2021-082L","OBJECT_TYPE":"PAYLOAD","SEMIMAJOR_AXIS":"6950.190","OBJECT_NAME":"STARLINK-3118","RCS_SIZE":"LARGE","ELEMENT_SET_NO":"999","INCLINATION":"69.9991","TIME_SYSTEM":"UTC"},{"GP_ID":"232083120","MEAN_ELEMENT_THEORY":"SGP4","TLE_LINE2":"2 49141  70.0003   1.9183 0003066 268.3946  91.6862 14.98331517 93462","TLE_LINE1":"1 49141U 21082M   23138.47552590  .00000505  00000-0  50085-4 0  9998","EPHEMERIS_TYPE":"0","SITE":"AFWTR","RA_OF_ASC_NODE":"1.9183","PERIOD":"96.107","ARG_OF_PERICENTER":"268.3946","APOAPSIS":"574.184","LAUNCH_DATE":"2021-09-14","EPOCH":"2023-05-18T11:24:45.437760","NORAD_CAT_ID":"49141","MEAN_MOTION":"14.98331517","FILE":"3911221","COUNTRY_CODE":"US","ECCENTRICITY":"0.00030660","DECAY_DATE":null,"PERIAPSIS":"569.922","BSTAR":"0.00005008500000","REF_FRAME":"TEME","CENTER_NAME":"EARTH","MEAN_MOTION_DDOT":"0.0000000000000","CLASSIFICATION_TYPE":"U","OBJECT_ID":"2021-082M","MEAN_ANOMALY":"91.6862","MEAN_MOTION_DOT":"0.00000505","REV_AT_EPOCH":"9346","TIME_SYSTEM":"UTC","INCLINATION":"70.0003","ELEMENT_SET_NO":"999","OBJECT_NAME":"STARLINK-3093","SEMIMAJOR_AXIS":"6950.188","OBJECT_TYPE":"PAYLOAD","RCS_SIZE":"LARGE"},{"RCS_SIZE":"LARGE","OBJECT_NAME":"STARLINK-3042","SEMIMAJOR_AXIS":"6950.237","OBJECT_TYPE":"PAYLOAD","TIME_SYSTEM":"UTC","INCLINATION":"69.9993","ELEMENT_SET_NO":"999","REV_AT_EPOCH":"9329","OBJECT_ID":"2021-082N","MEAN_ANOMALY":"91.8537","MEAN_MOTION_DOT":"-0.00001329","REF_FRAME":"TEME","BSTAR":"-0.00010365000000","CENTER_NAME":"EARTH","MEAN_MOTION_DDOT":"0.0000000000000","CLASSIFICATION_TYPE":"U","DECAY_DATE":null,"PERIAPSIS":"569.896","ECCENTRICITY":"0.00031730","COUNTRY_CODE":"US","EPOCH":"2023-05-18T18:24:42.334560","NORAD_CAT_ID":"49142","MEAN_MOTION":"14.98315896","FILE":"3911388","LAUNCH_DATE":"2021-09-14","ARG_OF_PERICENTER":"268.2258","APOAPSIS":"574.307","EPHEMERIS_TYPE":"0","SITE":"AFWTR","RA_OF_ASC_NODE":"321.1704","PERIOD":"96.108","GP_ID":"232114600","MEAN_ELEMENT_THEORY":"SGP4","TLE_LINE1":"1 49142U 21082N   23138.76715665 -.00001329  00000-0 -10365-3 0  9998","TLE_LINE2":"2 49142  69.9993 321.1704 0003173 268.2258  91.8537 14.98315896 93292"},{"TIME_SYSTEM":"UTC","ELEMENT_SET_NO":"999","INCLINATION":"69.9987","OBJECT_NAME":"STARLINK-3109","OBJECT_TYPE":"PAYLOAD","SEMIMAJOR_AXIS":"6950.189","RCS_SIZE":"LARGE","MEAN_ANOMALY":"90.5103","OBJECT_ID":"2021-082P","MEAN_MOTION_DOT":"0.00000464","REV_AT_EPOCH":"9392","NORAD_CAT_ID":"49143","EPOCH":"2023-05-18T20:13:09.650784","FILE":"3911388","MEAN_MOTION":"14.98331274","COUNTRY_CODE":"US","ECCENTRICITY":"0.00032370","PERIAPSIS":"569.804","DECAY_DATE":null,"CENTER_NAME":"EARTH","REF_FRAME":"TEME","BSTAR":"0.00004670200000","CLASSIFICATION_TYPE":"U","MEAN_MOTION_DDOT":"0.0000000000000","MEAN_ELEMENT_THEORY":"SGP4","GP_ID":"232112848","TLE_LINE2":"2 49143  69.9987 340.9846 0003237 269.5686  90.5103 14.98331274 93925","TLE_LINE1":"1 49143U 21082P   23138.84247281  .00000464  00000-0  46702-4 0  9994","SITE":"AFWTR","EPHEMERIS_TYPE":"0","PERIOD":"96.107","RA_OF_ASC_NODE":"340.9846","APOAPSIS":"574.304","ARG_OF_PERICENTER":"269.5686","LAUNCH_DATE":"2021-09-14"},{"RCS_SIZE":"LARGE","OBJECT_NAME":"STARLINK-3100","SEMIMAJOR_AXIS":"6950.195","OBJECT_TYPE":"PAYLOAD","TIME_SYSTEM":"UTC","INCLINATION":"70.0004","ELEMENT_SET_NO":"999","REV_AT_EPOCH":"9232","OBJECT_ID":"2021-082Q","MEAN_ANOMALY":"90.8884","MEAN_MOTION_DOT":"0.00000118","REF_FRAME":"TEME","BSTAR":"0.00001767100000","CENTER_NAME":"EARTH","MEAN_MOTION_DDOT":"0.0000000000000","CLASSIFICATION_TYPE":"U","DECAY_DATE":null,"PERIAPSIS":"569.838","ECCENTRICITY":"0.00031970","COUNTRY_CODE":"US","EPOCH":"2023-05-18T20:49:32.850912","NORAD_CAT_ID":"49144","MEAN_MOTION":"14.98329304","FILE":"3911388","LAUNCH_DATE":"2021-09-14","ARG_OF_PERICENTER":"269.1909","APOAPSIS":"574.282","EPHEMERIS_TYPE":"0","SITE":"AFWTR","RA_OF_ASC_NODE":"0.9084","PERIOD":"96.107","GP_ID":"232113098","MEAN_ELEMENT_THEORY":"SGP4","TLE_LINE2":"2 49144  70.0004   0.9084 0003197 269.1909  90.8884 14.98329304 92328","TLE_LINE1":"1 49144U 21082Q   23138.86774133  .00000118  00000-0  17671-4 0  9997"}];
